{
  "type": "FeatureCollection",
  "features": [
    {
      "type": "Feature",
      "properties": {
        "norad_id": 25730,
        "name": "FENGYUN 1C",
        "group": "fengyun-1c-debris",
        "lat": -28.880914505178275,
        "lon": 70.09340708530044,
        "alt_km": 807.3804571935016,
        "timestamp": "2025-12-24T22:42:22.302049+00:00",
        "meta_object_name": "FENGYUN 1C",
        "meta_object_id": "1999-025A",
        "meta_epoch": "2025-12-24T04:19:14.321568",
        "meta_mean_motion": 14.26109203,
        "meta_eccentricity": 0.00102337,
        "meta_inclination": 98.8819,
        "meta_ra_of_asc_node": 64.3689,
        "meta_arg_of_pericenter": 37.4157,
        "meta_mean_anomaly": 322.7733,
        "meta_ephemeris_type": 0,
        "meta_classification_type": "U",
        "meta_norad_cat_id": 25730,
        "meta_element_set_no": 999,
        "meta_rev_at_epoch": 37300,
        "meta_bstar": 0.001210506,
        "meta_mean_motion_dot": 2.851e-05,
        "meta_mean_motion_ddot": 0,
        "tle_line1": "1 25730U 99025A   25358.18002687  .00002851  00000+0  12105-2 0  9993",
        "tle_line2": "2 25730  98.8819  64.3689 0010233  37.4157 322.7733 14.26109203373002"
      },
      "geometry": {
        "type": "Point",
        "coordinates": [
          70.09340708530044,
          -28.880914505178275
        ]
      }
    },
    {
      "type": "Feature",
      "properties": {
        "norad_id": 29733,
        "name": "FENGYUN 1C DEB",
        "group": "fengyun-1c-debris",
        "lat": -1.9958771094192818,
        "lon": 53.48067440879098,
        "alt_km": 1713.6926441652058,
        "timestamp": "2025-12-24T22:42:22.302071+00:00",
        "meta_object_name": "FENGYUN 1C DEB",
        "meta_object_id": "1999-025X",
        "meta_epoch": "2025-12-24T02:30:23.216832",
        "meta_mean_motion": 12.96491084,
        "meta_eccentricity": 0.05696748,
        "meta_inclination": 99.2239,
        "meta_ra_of_asc_node": 52.4425,
        "meta_arg_of_pericenter": 175.8913,
        "meta_mean_anomaly": 216.3084,
        "meta_ephemeris_type": 0,
        "meta_classification_type": "U",
        "meta_norad_cat_id": 29733,
        "meta_element_set_no": 999,
        "meta_rev_at_epoch": 89267,
        "meta_bstar": 0.0010153552,
        "meta_mean_motion_dot": 5.8e-06,
        "meta_mean_motion_ddot": 0,
        "tle_line1": "1 29733U 99025X   25358.10443538  .00000580  00000+0  10154-2 0  9995",
        "tle_line2": "2 29733  99.2239  52.4425 0569674 175.8913 216.3084 12.96491084892673"
      },
      "geometry": {
        "type": "Point",
        "coordinates": [
          53.48067440879098,
          -1.9958771094192818
        ]
      }
    },
    {
      "type": "Feature",
      "properties": {
        "norad_id": 29734,
        "name": "FENGYUN 1C DEB",
        "group": "fengyun-1c-debris",
        "lat": -50.187571462154075,
        "lon": -61.97054063578882,
        "alt_km": 906.8401635030923,
        "timestamp": "2025-12-24T22:42:22.302085+00:00",
        "meta_object_name": "FENGYUN 1C DEB",
        "meta_object_id": "1999-025Y",
        "meta_epoch": "2025-12-24T07:01:00.641856",
        "meta_mean_motion": 12.91369032,
        "meta_eccentricity": 0.06156245,
        "meta_inclination": 99.1709,
        "meta_ra_of_asc_node": 286.3084,
        "meta_arg_of_pericenter": 345.5211,
        "meta_mean_anomaly": 169.7519,
        "meta_ephemeris_type": 0,
        "meta_classification_type": "U",
        "meta_norad_cat_id": 29734,
        "meta_element_set_no": 999,
        "meta_rev_at_epoch": 88697,
        "meta_bstar": 0.0058096249,
        "meta_mean_motion_dot": 3.59e-05,
        "meta_mean_motion_ddot": 0,
        "tle_line1": "1 29734U 99025Y   25358.29236854  .00003590  00000+0  58096-2 0  9998",
        "tle_line2": "2 29734  99.1709 286.3084 0615624 345.5211 169.7519 12.91369032886970"
      },
      "geometry": {
        "type": "Point",
        "coordinates": [
          -61.97054063578882,
          -50.187571462154075
        ]
      }
    },
    {
      "type": "Feature",
      "properties": {
        "norad_id": 29735,
        "name": "FENGYUN 1C DEB",
        "group": "fengyun-1c-debris",
        "lat": -62.46419367210436,
        "lon": 73.36026414349563,
        "alt_km": 1386.0926079444152,
        "timestamp": "2025-12-24T22:42:22.302103+00:00",
        "meta_object_name": "FENGYUN 1C DEB",
        "meta_object_id": "1999-025Z",
        "meta_epoch": "2025-12-24T06:25:45.997536",
        "meta_mean_motion": 12.7507063,
        "meta_eccentricity": 0.06976187,
        "meta_inclination": 99.3916,
        "meta_ra_of_asc_node": 271.3022,
        "meta_arg_of_pericenter": 149.5818,
        "meta_mean_anomaly": 214.7744,
        "meta_ephemeris_type": 0,
        "meta_classification_type": "U",
        "meta_norad_cat_id": 29735,
        "meta_element_set_no": 999,
        "meta_rev_at_epoch": 87562,
        "meta_bstar": 0.0023185583,
        "meta_mean_motion_dot": 1.322e-05,
        "meta_mean_motion_ddot": 0,
        "tle_line1": "1 29735U 99025Z   25358.26789349  .00001322  00000+0  23186-2 0  9991",
        "tle_line2": "2 29735  99.3916 271.3022 0697618 149.5818 214.7744 12.75070630875623"
      },
      "geometry": {
        "type": "Point",
        "coordinates": [
          73.36026414349563,
          -62.46419367210436
        ]
      }
    },
    {
      "type": "Feature",
      "properties": {
        "norad_id": 29736,
        "name": "FENGYUN 1C DEB",
        "group": "fengyun-1c-debris",
        "lat": -41.55148144928517,
        "lon": -175.546843215474,
        "alt_km": 1890.9619164946462,
        "timestamp": "2025-12-24T22:42:22.302129+00:00",
        "meta_object_name": "FENGYUN 1C DEB",
        "meta_object_id": "1999-025AA",
        "meta_epoch": "2025-12-23T22:58:21.438912",
        "meta_mean_motion": 12.57509365,
        "meta_eccentricity": 0.0724434,
        "meta_inclination": 99.4033,
        "meta_ra_of_asc_node": 175.2087,
        "meta_arg_of_pericenter": 174.6348,
        "meta_mean_anomaly": 343.599,
        "meta_ephemeris_type": 0,
        "meta_classification_type": "U",
        "meta_norad_cat_id": 29736,
        "meta_element_set_no": 999,
        "meta_rev_at_epoch": 86685,
        "meta_bstar": 0.0017249,
        "meta_mean_motion_dot": 7.55e-06,
        "meta_mean_motion_ddot": 0,
        "tle_line1": "1 29736U 99025AA  25357.95719258  .00000755  00000+0  17249-2 0  9991",
        "tle_line2": "2 29736  99.4033 175.2087 0724434 174.6348 343.5990 12.57509365866853"
      },
      "geometry": {
        "type": "Point",
        "coordinates": [
          -175.546843215474,
          -41.55148144928517
        ]
      }
    },
    {
      "type": "Feature",
      "properties": {
        "norad_id": 29737,
        "name": "FENGYUN 1C DEB",
        "group": "fengyun-1c-debris",
        "lat": 37.11428577008818,
        "lon": -55.342820683352365,
        "alt_km": 1214.653242626674,
        "timestamp": "2025-12-24T22:42:22.302151+00:00",
        "meta_object_name": "FENGYUN 1C DEB",
        "meta_object_id": "1999-025AB",
        "meta_epoch": "2025-12-24T03:38:34.713888",
        "meta_mean_motion": 12.65687047,
        "meta_eccentricity": 0.06958467,
        "meta_inclination": 99.5804,
        "meta_ra_of_asc_node": 311.3356,
        "meta_arg_of_pericenter": 113.6834,
        "meta_mean_anomaly": 274.1912,
        "meta_ephemeris_type": 0,
        "meta_classification_type": "U",
        "meta_norad_cat_id": 29737,
        "meta_element_set_no": 999,
        "meta_rev_at_epoch": 87013,
        "meta_bstar": 0.003707128,
        "meta_mean_motion_dot": 1.778e-05,
        "meta_mean_motion_ddot": 0,
        "tle_line1": "1 29737U 99025AB  25358.15179067  .00001778  00000+0  37071-2 0  9994",
        "tle_line2": "2 29737  99.5804 311.3356 0695846 113.6834 274.1912 12.65687047870132"
      },
      "geometry": {
        "type": "Point",
        "coordinates": [
          -55.342820683352365,
          37.11428577008818
        ]
      }
    },
    {
      "type": "Feature",
      "properties": {
        "norad_id": 29738,
        "name": "FENGYUN 1C DEB",
        "group": "fengyun-1c-debris",
        "lat": -42.912631032382016,
        "lon": -25.209457657530077,
        "alt_km": 916.7093005110682,
        "timestamp": "2025-12-24T22:42:22.302163+00:00",
        "meta_object_name": "FENGYUN 1C DEB",
        "meta_object_id": "1999-025AC",
        "meta_epoch": "2025-12-23T16:52:35.327424",
        "meta_mean_motion": 12.61082661,
        "meta_eccentricity": 0.08652856,
        "meta_inclination": 99.4098,
        "meta_ra_of_asc_node": 162.6418,
        "meta_arg_of_pericenter": 270.7525,
        "meta_mean_anomaly": 79.4624,
        "meta_ephemeris_type": 0,
        "meta_classification_type": "U",
        "meta_norad_cat_id": 29738,
        "meta_element_set_no": 999,
        "meta_rev_at_epoch": 86355,
        "meta_bstar": 0.0033971293,
        "meta_mean_motion_dot": 2.561e-05,
        "meta_mean_motion_ddot": 0,
        "tle_line1": "1 29738U 99025AC  25357.70318666  .00002561  00000+0  33971-2 0  9991",
        "tle_line2": "2 29738  99.4098 162.6418 0865285 270.7525  79.4624 12.61082661863552"
      },
      "geometry": {
        "type": "Point",
        "coordinates": [
          -25.209457657530077,
          -42.912631032382016
        ]
      }
    }
  ]
}